{
  "type": "FeatureCollection",
  "features": [
    { "type": "Feature", "geometry": { "type": "Point", "coordinates": [78.4867, 17.3850] }, "properties": { "weight": 5 } },
    { "type": "Feature", "geometry": { "type": "Point", "coordinates": [78.4890, 17.3890] }, "properties": { "weight": 8 } },
    { "type": "Feature", "geometry": { "type": "Point", "coordinates": [78.4750, 17.3700] }, "properties": { "weight": 3 } },
    { "type": "Feature", "geometry": { "type": "Point", "coordinates": [79.1288, 18.4386] }, "properties": { "weight": 10 } },
    { "type": "Feature", "geometry": { "type": "Point", "coordinates": [79.1350, 18.4420] }, "properties": { "weight": 7 } },
    { "type": "Feature", "geometry": { "type": "Point", "coordinates": [79.1200, 18.4300] }, "properties": { "weight": 4 } },
    { "type": "Feature", "geometry": { "type": "Point", "coordinates": [77.2090, 28.6139] }, "properties": { "weight": 6 } },
    { "type": "Feature", "geometry": { "type": "Point", "coordinates": [77.2100, 28.6150] }, "properties": { "weight": 9 } },
    { "type": "Feature", "geometry": { "type": "Point", "coordinates": [77.2080, 28.6120] }, "properties": { "weight": 5 } },
    { "type": "Feature", "geometry": { "type": "Point", "coordinates": [72.8777, 19.0760] }, "properties": { "weight": 8 } },
    { "type": "Feature", "geometry": { "type": "Point", "coordinates": [72.8800, 19.0780] }, "properties": { "weight": 10 } },
    { "type": "Feature", "geometry": { "type": "Point", "coordinates": [72.8750, 19.0740] }, "properties": { "weight": 6 } },
    { "type": "Feature", "geometry": { "type": "Point", "coordinates": [77.5946, 12.9716] }, "properties": { "weight": 7 } },
    { "type": "Feature", "geometry": { "type": "Point", "coordinates": [77.5950, 12.9720] }, "properties": { "weight": 9 } },
    { "type": "Feature", "geometry": { "type": "Point", "coordinates": [77.5930, 12.9700] }, "properties": { "weight": 5 } },
    { "type": "Feature", "geometry": { "type": "Point", "coordinates": [80.2707, 13.0827] }, "properties": { "weight": 6 } },
    { "type": "Feature", "geometry": { "type": "Point", "coordinates": [80.2710, 13.0830] }, "properties": { "weight": 8 } },
    { "type": "Feature", "geometry": { "type": "Point", "coordinates": [80.2690, 13.0810] }, "properties": { "weight": 4 } }, 
    { "type": "Feature", "geometry": { "type": "Point", "coordinates": [88.3639, 22.5726] }, "properties": { "weight": 7 } },
    { "type": "Feature", "geometry": { "type": "Point", "coordinates": [88.3640, 22.5730] }, "properties": { "weight": 9 } },
    { "type": "Feature", "geometry": { "type": "Point", "coordinates": [88.3620, 22.5710] }, "properties": { "weight": 5 } },
    { "type": "Feature", "geometry": { "type": "Point", "coordinates": [72.5714, 23.0225] }, "properties": { "weight": 5 } },
    { "type": "Feature", "geometry": { "type": "Point", "coordinates": [72.5720, 23.0230] }, "properties": { "weight": 7 } },
    { "type": "Feature", "geometry": { "type": "Point", "coordinates": [72.5700, 23.0210] }, "properties": { "weight": 3 } },
    { "type": "Feature", "geometry": { "type": "Point", "coordinates": [91.7362, 26.1445] }, "properties": { "weight": 4 } },
    { "type": "Feature", "geometry": { "type": "Point", "coordinates": [91.7370, 26.1450] }, "properties": { "weight": 6 } },
    { "type": "Feature", "geometry": { "type": "Point", "coordinates": [91.7350, 26.1430] }, "properties": { "weight": 2 } },
    { "type": "Feature", "geometry": { "type": "Point", "coordinates": [75.8577, 22.7196] }, "properties": { "weight": 5 } },
    { "type": "Feature", "geometry": { "type": "Point", "coordinates": [75.8580, 22.7200] }, "properties": { "weight": 7 } },
    { "type": "Feature", "geometry": { "type": "Point", "coordinates": [75.8570, 22.7190] }, "properties": { "weight": 3 } },
    { "type": "Feature", "geometry": { "type": "Point", "coordinates": [76.7794, 30.7333] }, "properties": { "weight": 4 } },
    { "type": "Feature", "geometry": { "type": "Point", "coordinates": [76.7800, 30.7340] }, "properties": { "weight": 6 } },
    { "type": "Feature", "geometry": { "type": "Point", "coordinates": [76.7780, 30.7320] }, "properties": { "weight": 2 } },
    { "type": "Feature", "geometry": { "type": "Point", "coordinates": [76.2673, 9.9312] }, "properties": { "weight": 5 } },
    { "type": "Feature", "geometry": { "type": "Point", "coordinates": [76.2680, 9.9320] }, "properties": { "weight": 7 } },
    { "type": "Feature", "geometry": { "type": "Point", "coordinates": [76.2660, 9.9300] }, "properties": { "weight": 3 } },
    { "type": "Feature", "geometry": { "type": "Point", "coordinates": [78.4867, 17.3850] }, "properties": { "weight": 10, "city": "Hyderabad" } },
    { "type": "Feature", "geometry": { "type": "Point", "coordinates": [77.2090, 28.6139] }, "properties": { "weight": 9, "city": "New Delhi" } },
    { "type": "Feature", "geometry": { "type": "Point", "coordinates": [72.8777, 19.0760] }, "properties": { "weight": 10, "city": "Mumbai" } },
    { "type": "Feature", "geometry": { "type": "Point", "coordinates": [77.5946, 12.9716] }, "properties": { "weight": 8, "city": "Bangalore" } },
    { "type": "Feature", "geometry": { "type": "Point", "coordinates": [80.2707, 13.0827] }, "properties": { "weight": 7, "city": "Chennai" } },
    { "type": "Feature", "geometry": { "type": "Point", "coordinates": [88.3639, 22.5726] }, "properties": { "weight": 8, "city": "Kolkata" } },
    { "type": "Feature", "geometry": { "type": "Point", "coordinates": [72.5714, 23.0225] }, "properties": { "weight": 6, "city": "Ahmedabad" } },
    { "type": "Feature", "geometry": { "type": "Point", "coordinates": [91.7362, 26.1445] }, "properties": { "weight": 5, "city": "Guwahati" } },
    { "type": "Feature", "geometry": { "type": "Point", "coordinates": [75.8577, 22.7196] }, "properties": { "weight": 6, "city": "Indore" } },
    { "type": "Feature", "geometry": { "type": "Point", "coordinates": [76.7794, 30.7333] }, "properties": { "weight": 5, "city": "Chandigarh" } },
    { "type": "Feature", "geometry": { "type": "Point", "coordinates": [76.2673, 9.9312] }, "properties": { "weight": 6, "city": "Kochi" } }

  ]
}
